{"fetched_at":"2026-07-16T17:46:07.288Z","source":"https://celestrak.org/NORAD/elements/gp.php?GROUP=planet&FORMAT=JSON","constellation":"tanager","records":[{"OBJECT_NAME":"TANAGER-1","OBJECT_ID":"2024-149AR","EPOCH":"2026-07-15T05:07:58.411200","CLASSIFICATION_TYPE":"U","MEAN_MOTION":15.43902804,"ECCENTRICITY":0.0001553,"INCLINATION":97.2324,"RA_OF_ASC_NODE":290.3469,"ARG_OF_PERICENTER":136.7209,"MEAN_ANOMALY":223.4162,"EPHEMERIS_TYPE":0,"NORAD_CAT_ID":60507,"ELEMENT_SET_NO":999,"REV_AT_EPOCH":10736,"BSTAR":0.0000060546,"MEAN_MOTION_DOT":0.00000191,"MEAN_MOTION_DDOT":0}]}
